[{"OBJECT_NAME":"STARLINK-31523","OBJECT_ID":"2024-046V","EPOCH":"2026-03-09T12:31:35.372352","MEAN_MOTION":15.30187874,"ECCENTRICITY":0.0001268,"INCLINATION":53.1606,"RA_OF_ASC_NODE":156.1291,"ARG_OF_PERICENTER":69.7087,"MEAN_ANOMALY":290.405,"EPHEMERIS_TYPE":0,"CLASSIFICATION_TYPE":"U","NORAD_CAT_ID":59220,"ELEMENT_SET_NO":999,"REV_AT_EPOCH":11301,"BSTAR":5.4258412e-5,"MEAN_MOTION_DOT":1.248e-5,"MEAN_MOTION_DDOT":0},{"OBJECT_NAME":"SL-12 DEB","OBJECT_ID":"1989-039AE","EPOCH":"2026-03-08T15:57:51.444000","MEAN_MOTION":5.32331573,"ECCENTRICITY":0.50761065,"INCLINATION":64.8601,"RA_OF_ASC_NODE":269.3843,"ARG_OF_PERICENTER":48.1081,"MEAN_ANOMALY":345.354,"EPHEMERIS_TYPE":0,"CLASSIFICATION_TYPE":"U","NORAD_CAT_ID":29323,"ELEMENT_SET_NO":999,"REV_AT_EPOCH":9762,"BSTAR":0.0077836612,"MEAN_MOTION_DOT":7.944e-5,"MEAN_MOTION_DDOT":0}]
